LILACSAT-1              
1 42725U 98067ME  17345.91421545  .00016263  00000-0  19118-3 0  9992
2 42725  51.6376 227.3351 0004545 233.5148 126.5428 15.61589802 31206
